start=new Date('2023-07-02T00:00:00.000Z').valueOf();
sats=[{"RCS_SIZE":"LARGE","EPHEMERIS_TYPE":"0","ELEMENT_SET_NO":"999","MEAN_ELEMENT_THEORY":"SGP4","MEAN_MOTION_DDOT":"0.0000000000000","REV_AT_EPOCH":"1569","BSTAR":"-0.00000979350000","OBJECT_ID":"2023-042AY","ECCENTRICITY":"0.00014920","REF_FRAME":"TEME","TIME_SYSTEM":"UTC","ARG_OF_PERICENTER":"272.5000","OBJECT_TYPE":"PAYLOAD","NORAD_CAT_ID":"56032","DECAY_DATE":null,"GP_ID":"234654872","FILE":"3946967","CENTER_NAME":"EARTH","PERIAPSIS":"558.029","EPOCH":"2023-07-01T17:54:14.292864","RA_OF_ASC_NODE":"338.4365","INCLINATION":"43.0027","TLE_LINE2":"2 56032  43.0027 338.4365 0001492 272.5000  87.5671 15.02541543 15693","APOAPSIS":"560.100","OBJECT_NAME":"STARLINK-5786","SITE":"AFETR","PERIOD":"95.838","SEMIMAJOR_AXIS":"6937.199","TLE_LINE1":"1 56032U 23042AY  23182.74599876 -.00000336  00000-0 -97935-5 0  9990","CLASSIFICATION_TYPE":"U","MEAN_MOTION_DOT":"-0.00000336","COUNTRY_CODE":"US","MEAN_MOTION":"15.02541543","LAUNCH_DATE":"2023-03-24","MEAN_ANOMALY":"87.5671"},{"MEAN_ANOMALY":"77.2201","LAUNCH_DATE":"2023-03-24","MEAN_MOTION":"15.02533233","COUNTRY_CODE":"US","MEAN_MOTION_DOT":"0.00000167","CLASSIFICATION_TYPE":"U","SEMIMAJOR_AXIS":"6937.225","TLE_LINE1":"1 56033U 23042AZ  23182.74821614  .00000167  00000-0  27462-4 0  9996","PERIOD":"95.838","SITE":"AFETR","OBJECT_NAME":"STARLINK-5784","APOAPSIS":"560.449","TLE_LINE2":"2 56033  43.0024 338.4510 0001959 282.8422  77.2201 15.02533233 15695","RA_OF_ASC_NODE":"338.4510","INCLINATION":"43.0024","EPOCH":"2023-07-01T17:57:25.874496","PERIAPSIS":"557.731","CENTER_NAME":"EARTH","DECAY_DATE":null,"GP_ID":"234655388","FILE":"3946973","NORAD_CAT_ID":"56033","OBJECT_TYPE":"PAYLOAD","ARG_OF_PERICENTER":"282.8422","TIME_SYSTEM":"UTC","REF_FRAME":"TEME","OBJECT_ID":"2023-042AZ","ECCENTRICITY":"0.00019590","BSTAR":"0.00002746200000","REV_AT_EPOCH":"1569","MEAN_MOTION_DDOT":"0.0000000000000","MEAN_ELEMENT_THEORY":"SGP4","ELEMENT_SET_NO":"999","EPHEMERIS_TYPE":"0","RCS_SIZE":"LARGE"},{"NORAD_CAT_ID":"56034","OBJECT_TYPE":"PAYLOAD","ARG_OF_PERICENTER":"272.5689","REF_FRAME":"TEME","OBJECT_ID":"2023-042BA","ECCENTRICITY":"0.00014510","TIME_SYSTEM":"UTC","MEAN_MOTION_DDOT":"0.0000000000000","BSTAR":"0.00004433700000","REV_AT_EPOCH":"1569","MEAN_ELEMENT_THEORY":"SGP4","ELEMENT_SET_NO":"999","EPHEMERIS_TYPE":"0","RCS_SIZE":"LARGE","LAUNCH_DATE":"2023-03-24","MEAN_MOTION":"15.02540573","MEAN_ANOMALY":"87.4988","MEAN_MOTION_DOT":"0.00000395","COUNTRY_CODE":"US","TLE_LINE1":"1 56034U 23042BA  23182.74266851  .00000395  00000-0  44337-4 0  9996","SEMIMAJOR_AXIS":"6937.202","CLASSIFICATION_TYPE":"U","SITE":"AFETR","PERIOD":"95.838","OBJECT_NAME":"STARLINK-5782","RA_OF_ASC_NODE":"338.4112","INCLINATION":"43.0025","APOAPSIS":"560.074","TLE_LINE2":"2 56034  43.0025 338.4112 0001451 272.5689  87.4988 15.02540573 15693","CENTER_NAME":"EARTH","DECAY_DATE":null,"GP_ID":"234655379","FILE":"3946973","EPOCH":"2023-07-01T17:49:26.559264","PERIAPSIS":"558.061"},{"BSTAR":"-0.00002217000000","REV_AT_EPOCH":"1563","MEAN_MOTION_DDOT":"0.0000000000000","MEAN_ELEMENT_THEORY":"SGP4","ELEMENT_SET_NO":"999","EPHEMERIS_TYPE":"0","RCS_SIZE":"LARGE","NORAD_CAT_ID":"56035","OBJECT_TYPE":"PAYLOAD","ARG_OF_PERICENTER":"278.8293","TIME_SYSTEM":"UTC","REF_FRAME":"TEME","OBJECT_ID":"2023-042BB","ECCENTRICITY":"0.00013940","OBJECT_NAME":"STARLINK-5792","APOAPSIS":"560.061","TLE_LINE2":"2 56035  43.0007 340.6353 0001394 278.8293  81.2391 15.02531995 15634","RA_OF_ASC_NODE":"340.6353","INCLINATION":"43.0007","EPOCH":"2023-07-01T08:26:16.248480","PERIAPSIS":"558.127","CENTER_NAME":"EARTH","GP_ID":"234648602","DECAY_DATE":null,"FILE":"3946726","MEAN_ANOMALY":"81.2391","LAUNCH_DATE":"2023-03-24","MEAN_MOTION":"15.02531995","COUNTRY_CODE":"US","MEAN_MOTION_DOT":"-0.00000503","CLASSIFICATION_TYPE":"U","SEMIMAJOR_AXIS":"6937.229","TLE_LINE1":"1 56035U 23042BB  23182.35157695 -.00000503  00000-0 -22170-4 0  9993","PERIOD":"95.838","SITE":"AFETR"},{"NORAD_CAT_ID":"56036","OBJECT_TYPE":"PAYLOAD","ARG_OF_PERICENTER":"273.1843","TIME_SYSTEM":"UTC","REF_FRAME":"TEME","ECCENTRICITY":"0.00014710","OBJECT_ID":"2023-042BC","BSTAR":"0.00002514000000","REV_AT_EPOCH":"1569","MEAN_MOTION_DDOT":"0.0000000000000","MEAN_ELEMENT_THEORY":"SGP4","ELEMENT_SET_NO":"999","EPHEMERIS_TYPE":"0","RCS_SIZE":"LARGE","MEAN_ANOMALY":"86.8831","LAUNCH_DATE":"2023-03-24","MEAN_MOTION":"15.02536734","COUNTRY_CODE":"US","MEAN_MOTION_DOT":"0.00000136","CLASSIFICATION_TYPE":"U","SEMIMAJOR_AXIS":"6937.214","TLE_LINE1":"1 56036U 23042BC  23182.74045003  .00000136  00000-0  25140-4 0  9996","PERIOD":"95.838","SITE":"AFETR","OBJECT_NAME":"STARLINK-5790","APOAPSIS":"560.100","TLE_LINE2":"2 56036  43.0024 338.3950 0001471 273.1843  86.8831 15.02536734 15698","INCLINATION":"43.0024","RA_OF_ASC_NODE":"338.3950","EPOCH":"2023-07-01T17:46:14.882592","PERIAPSIS":"558.059","CENTER_NAME":"EARTH","GP_ID":"234655640","FILE":"3946974","DECAY_DATE":null},{"PERIAPSIS":"547.614","EPOCH":"2023-07-01T14:00:01.000224","FILE":"3946727","GP_ID":"234648617","DECAY_DATE":null,"CENTER_NAME":"EARTH","TLE_LINE2":"2 56037  43.0009 326.9102 0001239 261.3628  24.9319 15.05989555 15810","APOAPSIS":"549.330","RA_OF_ASC_NODE":"326.9102","INCLINATION":"43.0009","OBJECT_NAME":"STARLINK-5758","PERIOD":"95.618","SITE":"AFETR","CLASSIFICATION_TYPE":"U","SEMIMAJOR_AXIS":"6926.607","TLE_LINE1":"1 56037U 23042BD  23182.58334491 -.00930126  00000-0 -67995-1 0  9995","COUNTRY_CODE":"US","MEAN_MOTION_DOT":"-0.00930126","MEAN_ANOMALY":"24.9319","MEAN_MOTION":"15.05989555","LAUNCH_DATE":"2023-03-24","RCS_SIZE":"LARGE","EPHEMERIS_TYPE":"0","ELEMENT_SET_NO":"999","MEAN_ELEMENT_THEORY":"SGP4","REV_AT_EPOCH":"1581","BSTAR":"-0.06799500000000","MEAN_MOTION_DDOT":"0.0000000000000","TIME_SYSTEM":"UTC","OBJECT_ID":"2023-042BD","ECCENTRICITY":"0.00012390","REF_FRAME":"TEME","ARG_OF_PERICENTER":"261.3628","OBJECT_TYPE":"PAYLOAD","NORAD_CAT_ID":"56037"},{"FILE":"3946401","GP_ID":"234641117","DECAY_DATE":null,"CENTER_NAME":"EARTH","PERIAPSIS":"558.230","EPOCH":"2023-06-30T19:27:39.164544","OBJECT_NAME":"STARLINK-5793","RA_OF_ASC_NODE":"343.4614","INCLINATION":"43.0036","TLE_LINE2":"2 56038  43.0036 343.4614 0001227 275.0573  85.0130 15.02535981 15558","APOAPSIS":"559.933","SEMIMAJOR_AXIS":"6937.217","TLE_LINE1":"1 56038U 23042BE  23181.81086996  .00000308  00000-0  37898-4 0  9995","CLASSIFICATION_TYPE":"U","SITE":"AFETR","PERIOD":"95.838","MEAN_MOTION":"15.02535981","LAUNCH_DATE":"2023-03-24","MEAN_ANOMALY":"85.0130","MEAN_MOTION_DOT":"0.00000308","COUNTRY_CODE":"US","EPHEMERIS_TYPE":"0","ELEMENT_SET_NO":"999","RCS_SIZE":"LARGE","MEAN_MOTION_DDOT":"0.0000000000000","REV_AT_EPOCH":"1555","BSTAR":"0.00003789800000","MEAN_ELEMENT_THEORY":"SGP4","ARG_OF_PERICENTER":"275.0573","OBJECT_TYPE":"PAYLOAD","ECCENTRICITY":"0.00012270","OBJECT_ID":"2023-042BE","REF_FRAME":"TEME","TIME_SYSTEM":"UTC","NORAD_CAT_ID":"56038"},{"OBJECT_NAME":"STARLINK-5795","INCLINATION":"43.0007","RA_OF_ASC_NODE":"326.7973","APOAPSIS":"547.579","TLE_LINE2":"2 56039  43.0007 326.7973 0001294 262.0563  71.0452 15.06573171 15816","CENTER_NAME":"EARTH","FILE":"3946727","GP_ID":"234649111","DECAY_DATE":null,"EPOCH":"2023-07-01T14:00:01.000224","PERIAPSIS":"545.787","LAUNCH_DATE":"2023-03-24","MEAN_MOTION":"15.06573171","MEAN_ANOMALY":"71.0452","MEAN_MOTION_DOT":"-0.00931823","COUNTRY_CODE":"US","SEMIMAJOR_AXIS":"6924.818","TLE_LINE1":"1 56039U 23042BF  23182.58334491 -.00931823  00000-0 -67055-1 0  9999","CLASSIFICATION_TYPE":"U","SITE":"AFETR","PERIOD":"95.581","MEAN_MOTION_DDOT":"0.0000000000000","BSTAR":"-0.06705500000000","REV_AT_EPOCH":"1581","MEAN_ELEMENT_THEORY":"SGP4","ELEMENT_SET_NO":"999","EPHEMERIS_TYPE":"0","RCS_SIZE":"LARGE","NORAD_CAT_ID":"56039","OBJECT_TYPE":"PAYLOAD","ARG_OF_PERICENTER":"262.0563","REF_FRAME":"TEME","ECCENTRICITY":"0.00012940","OBJECT_ID":"2023-042BF","TIME_SYSTEM":"UTC"},{"LAUNCH_DATE":"2023-03-24","MEAN_MOTION":"15.07465561","MEAN_ANOMALY":"133.7800","MEAN_MOTION_DOT":"-0.00935916","COUNTRY_CODE":"US","SEMIMAJOR_AXIS":"6922.085","TLE_LINE1":"1 56040U 23042BG  23182.58334491 -.00935916  00000-0 -65751-1 0  9999","CLASSIFICATION_TYPE":"U","SITE":"AFETR","PERIOD":"95.525","OBJECT_NAME":"STARLINK-5798","RA_OF_ASC_NODE":"326.6303","INCLINATION":"43.0005","APOAPSIS":"544.827","TLE_LINE2":"2 56040  43.0005 326.6303 0001267 269.1790 133.7800 15.07465561 15819","CENTER_NAME":"EARTH","FILE":"3946727","GP_ID":"234649110","DECAY_DATE":null,"EPOCH":"2023-07-01T14:00:01.000224","PERIAPSIS":"543.073","NORAD_CAT_ID":"56040","OBJECT_TYPE":"PAYLOAD","ARG_OF_PERICENTER":"269.1790","REF_FRAME":"TEME","OBJECT_ID":"2023-042BG","ECCENTRICITY":"0.00012670","TIME_SYSTEM":"UTC","MEAN_MOTION_DDOT":"0.0000000000000","BSTAR":"-0.06575100000000","REV_AT_EPOCH":"1581","MEAN_ELEMENT_THEORY":"SGP4","ELEMENT_SET_NO":"999","EPHEMERIS_TYPE":"0","RCS_SIZE":"LARGE"},{"RA_OF_ASC_NODE":"326.5913","INCLINATION":"43.0003","APOAPSIS":"544.215","TLE_LINE2":"2 56041  43.0003 326.5913 0001252 270.8027 147.9738 15.07661890 15810","OBJECT_NAME":"STARLINK-5800","CENTER_NAME":"EARTH","FILE":"3946728","GP_ID":"234649122","DECAY_DATE":null,"EPOCH":"2023-07-01T14:00:01.000224","PERIAPSIS":"542.482","MEAN_MOTION_DOT":"-0.00937207","COUNTRY_CODE":"US","LAUNCH_DATE":"2023-03-24","MEAN_MOTION":"15.07661890","MEAN_ANOMALY":"147.9738","SITE":"AFETR","PERIOD":"95.512","TLE_LINE1":"1 56041U 23042BH  23182.58334491 -.00937207  00000-0 -65496-1 0  9991","SEMIMAJOR_AXIS":"6921.484","CLASSIFICATION_TYPE":"U","MEAN_ELEMENT_THEORY":"SGP4","MEAN_MOTION_DDOT":"0.0000000000000","BSTAR":"-0.06549600000000","REV_AT_EPOCH":"1581","RCS_SIZE":"LARGE","ELEMENT_SET_NO":"999","EPHEMERIS_TYPE":"0","NORAD_CAT_ID":"56041","REF_FRAME":"TEME","ECCENTRICITY":"0.00012520","OBJECT_ID":"2023-042BH","TIME_SYSTEM":"UTC","OBJECT_TYPE":"PAYLOAD","ARG_OF_PERICENTER":"270.8027"}];
